ONEWEB-0427             
1 50499U 21132AG  26148.24544182  .00000101  00000+0  22367-3 0  9991
2 50499  87.9168 339.4026 0002049  92.3252 267.8114 13.18687776218984
ONEWEB-0429             
1 50500U 21132AH  26148.23194119 -.00000293  00000+0 -77677-3 0  9992
2 50500  87.9160 339.4315 0001709  86.8471 273.2857 13.18687670218958
ONEWEB-0430             
1 50501U 21132AJ  26148.22013918  .00000019  00000+0  15369-4 0  9994
2 50501  87.9161 339.4321 0001582  92.9670 267.1643 13.18685620218997
ONEWEB-0432             
1 50502U 21132AK  26148.25302830  .00000097  00000+0  21205-3 0  9993
2 50502  87.9169 339.3974 0001691 108.7231 251.4085 13.18713186218950
ONEWEB-0440             
1 50503U 21132AL  26148.24038362  .00000068  00000+0  13949-3 0  9993
2 50503  87.9169 339.4227 0001837  78.3188 281.8150 13.18688808218949
ONEWEB-0450             
1 50504U 21132AM  26148.23378588  .00000050  00000+0  93581-4 0  9992
2 50504  87.9158 339.4313 0001629  86.7812 273.3507 13.18688062218977
ONEWEB-0410             
1 51622U 22012A   26148.09418862 -.00000055  00000+0 -17468-3 0  9992
2 51622  87.9162   9.8512 0003119  94.2531 265.8957 13.17651594211057
ONEWEB-0411             
1 51623U 22012B   26148.23641311  .00000443  00000+0  12315-2 0  9990
2 51623  87.8855  40.2374 0001293  87.1881 272.9395 13.10371615206674
ONEWEB-0415             
1 51624U 22012C   26148.23309962  .00000653  00000+0  18348-2 0  9999
2 51624  87.8850  40.2378 0001605  85.1137 275.0173 13.10372493206676
ONEWEB-0416             
1 51625U 22012D   26148.24470489  .00000131  00000+0  33921-3 0  9990
2 51625  87.8845  40.2543 0001690  94.0723 266.0598 13.10369414206714
ONEWEB-0422             
1 51626U 22012E   26148.10432329  .00000073  00000+0  15422-3 0  9998
2 51626  87.9158   9.8510 0001579  63.6549 296.4745 13.17649522211166
ONEWEB-0423             
1 51627U 22012F   26148.17351523  .00000006  00000+0 -17198-4 0  9992
2 51627  87.9154   9.8439 0001943  84.2454 275.8899 13.17649115211060
ONEWEB-0425             
1 51628U 22012G   26148.17831580 -.00000399  00000+0 -11783-2 0  9997
2 51628  87.8848  40.2505 0002138  82.5217 277.6154 13.10371345206707
ONEWEB-0428             
1 51629U 22012H   26148.23475635  .00000543  00000+0  15182-2 0  9996
2 51629  87.8850  40.2464 0001807  80.0325 280.1007 13.10372031206675
ONEWEB-0431             
1 51630U 22012J   26148.20472099 -.00000151  00000+0 -46748-3 0  9996
2 51630  87.8856  40.2447 0001195  80.9976 279.1286 13.10377845206726
ONEWEB-0434             
1 51631U 22012K   26148.25811875 -.00000557  00000+0 -16320-2 0  9993
2 51631  87.8853  40.2586 0002469  83.2522 276.8886 13.10371896206715
