[{"OBJECT_NAME":"ONEWEB-0427","OBJECT_ID":"2021-132AG","EPOCH":"2026-05-28T05:53:26.173248","MEAN_MOTION":13.18687776,"ECCENTRICITY":0.0002049,"INCLINATION":87.9168,"RA_OF_ASC_NODE":339.4026,"ARG_OF_PERICENTER":92.3252,"MEAN_ANOMALY":267.8114,"EPHEMERIS_TYPE":0,"CLASSIFICATION_TYPE":"U","NORAD_CAT_ID":50499,"ELEMENT_SET_NO":999,"REV_AT_EPOCH":21898,"BSTAR":0.00022367,"MEAN_MOTION_DOT":1.01e-06,"MEAN_MOTION_DDOT":0.0},{"OBJECT_NAME":"ONEWEB-0429","OBJECT_ID":"2021-132AH","EPOCH":"2026-05-28T05:33:59.718816","MEAN_MOTION":13.1868767,"ECCENTRICITY":0.0001709,"INCLINATION":87.916,"RA_OF_ASC_NODE":339.4315,"ARG_OF_PERICENTER":86.8471,"MEAN_ANOMALY":273.2857,"EPHEMERIS_TYPE":0,"CLASSIFICATION_TYPE":"U","NORAD_CAT_ID":50500,"ELEMENT_SET_NO":999,"REV_AT_EPOCH":21895,"BSTAR":-0.00077677,"MEAN_MOTION_DOT":-2.93e-06,"MEAN_MOTION_DDOT":0.0},{"OBJECT_NAME":"ONEWEB-0430","OBJECT_ID":"2021-132AJ","EPOCH":"2026-05-28T05:17:00.025152","MEAN_MOTION":13.1868562,"ECCENTRICITY":0.0001582,"INCLINATION":87.9161,"RA_OF_ASC_NODE":339.4321,"ARG_OF_PERICENTER":92.967,"MEAN_ANOMALY":267.1643,"EPHEMERIS_TYPE":0,"CLASSIFICATION_TYPE":"U","NORAD_CAT_ID":50501,"ELEMENT_SET_NO":999,"REV_AT_EPOCH":21899,"BSTAR":1.5369e-05,"MEAN_MOTION_DOT":1.9e-07,"MEAN_MOTION_DDOT":0.0},{"OBJECT_NAME":"ONEWEB-0432","OBJECT_ID":"2021-132AK","EPOCH":"2026-05-28T06:04:21.645120","MEAN_MOTION":13.18713186,"ECCENTRICITY":0.0001691,"INCLINATION":87.9169,"RA_OF_ASC_NODE":339.3974,"ARG_OF_PERICENTER":108.7231,"MEAN_ANOMALY":251.4085,"EPHEMERIS_TYPE":0,"CLASSIFICATION_TYPE":"U","NORAD_CAT_ID":50502,"ELEMENT_SET_NO":999,"REV_AT_EPOCH":21895,"BSTAR":0.00021205,"MEAN_MOTION_DOT":9.7e-07,"MEAN_MOTION_DDOT":0.0},{"OBJECT_NAME":"ONEWEB-0440","OBJECT_ID":"2021-132AL","EPOCH":"2026-05-28T05:46:09.144768","MEAN_MOTION":13.18688808,"ECCENTRICITY":0.0001837,"INCLINATION":87.9169,"RA_OF_ASC_NODE":339.4227,"ARG_OF_PERICENTER":78.3188,"MEAN_ANOMALY":281.815,"EPHEMERIS_TYPE":0,"CLASSIFICATION_TYPE":"U","NORAD_CAT_ID":50503,"ELEMENT_SET_NO":999,"REV_AT_EPOCH":21894,"BSTAR":0.00013949,"MEAN_MOTION_DOT":6.8e-07,"MEAN_MOTION_DDOT":0.0},{"OBJECT_NAME":"ONEWEB-0450","OBJECT_ID":"2021-132AM","EPOCH":"2026-05-28T05:36:39.100032","MEAN_MOTION":13.18688062,"ECCENTRICITY":0.0001629,"INCLINATION":87.9158,"RA_OF_ASC_NODE":339.4313,"ARG_OF_PERICENTER":86.7812,"MEAN_ANOMALY":273.3507,"EPHEMERIS_TYPE":0,"CLASSIFICATION_TYPE":"U","NORAD_CAT_ID":50504,"ELEMENT_SET_NO":999,"REV_AT_EPOCH":21897,"BSTAR":9.358100000000001e-05,"MEAN_MOTION_DOT":5e-07,"MEAN_MOTION_DDOT":0.0},{"OBJECT_NAME":"ONEWEB-0410","OBJECT_ID":"2022-012A","EPOCH":"2026-05-28T02:15:37.896768","MEAN_MOTION":13.17651594,"ECCENTRICITY":0.0003119,"INCLINATION":87.9162,"RA_OF_ASC_NODE":9.8512,"ARG_OF_PERICENTER":94.2531,"MEAN_ANOMALY":265.8957,"EPHEMERIS_TYPE":0,"CLASSIFICATION_TYPE":"U","NORAD_CAT_ID":51622,"ELEMENT_SET_NO":999,"REV_AT_EPOCH":21105,"BSTAR":-0.00017468,"MEAN_MOTION_DOT":-5.5e-07,"MEAN_MOTION_DDOT":0.0},{"OBJECT_NAME":"ONEWEB-0411","OBJECT_ID":"2022-012B","EPOCH":"2026-05-28T05:40:26.092704","MEAN_MOTION":13.10371615,"ECCENTRICITY":0.0001293,"INCLINATION":87.8855,"RA_OF_ASC_NODE":40.2374,"ARG_OF_PERICENTER":87.1881,"MEAN_ANOMALY":272.9395,"EPHEMERIS_TYPE":0,"CLASSIFICATION_TYPE":"U","NORAD_CAT_ID":51623,"ELEMENT_SET_NO":999,"REV_AT_EPOCH":20667,"BSTAR":0.0012315,"MEAN_MOTION_DOT":4.43e-06,"MEAN_MOTION_DDOT":0.0},{"OBJECT_NAME":"ONEWEB-0415","OBJECT_ID":"2022-012C","EPOCH":"2026-05-28T05:35:39.807168","MEAN_MOTION":13.10372493,"ECCENTRICITY":0.0001605,"INCLINATION":87.885,"RA_OF_ASC_NODE":40.2378,"ARG_OF_PERICENTER":85.1137,"MEAN_ANOMALY":275.0173,"EPHEMERIS_TYPE":0,"CLASSIFICATION_TYPE":"U","NORAD_CAT_ID":51624,"ELEMENT_SET_NO":999,"REV_AT_EPOCH":20667,"BSTAR":0.0018348000000000001,"MEAN_MOTION_DOT":6.53e-06,"MEAN_MOTION_DDOT":0.0},{"OBJECT_NAME":"ONEWEB-0416","OBJECT_ID":"2022-012D","EPOCH":"2026-05-28T05:52:22.502496","MEAN_MOTION":13.10369414,"ECCENTRICITY":0.000169,"INCLINATION":87.8845,"RA_OF_ASC_NODE":40.2543,"ARG_OF_PERICENTER":94.0723,"MEAN_ANOMALY":266.0598,"EPHEMERIS_TYPE":0,"CLASSIFICATION_TYPE":"U","NORAD_CAT_ID":51625,"ELEMENT_SET_NO":999,"REV_AT_EPOCH":20671,"BSTAR":0.00033921,"MEAN_MOTION_DOT":1.31e-06,"MEAN_MOTION_DDOT":0.0},{"OBJECT_NAME":"ONEWEB-0422","OBJECT_ID":"2022-012E","EPOCH":"2026-05-28T02:30:13.532256","MEAN_MOTION":13.17649522,"ECCENTRICITY":0.0001579,"INCLINATION":87.9158,"RA_OF_ASC_NODE":9.851,"ARG_OF_PERICENTER":63.6549,"MEAN_ANOMALY":296.4745,"EPHEMERIS_TYPE":0,"CLASSIFICATION_TYPE":"U","NORAD_CAT_ID":51626,"ELEMENT_SET_NO":999,"REV_AT_EPOCH":21116,"BSTAR":0.00015422,"MEAN_MOTION_DOT":7.3e-07,"MEAN_MOTION_DDOT":0.0},{"OBJECT_NAME":"ONEWEB-0423","OBJECT_ID":"2022-012F","EPOCH":"2026-05-28T04:09:51.715872","MEAN_MOTION":13.17649115,"ECCENTRICITY":0.0001943,"INCLINATION":87.9154,"RA_OF_ASC_NODE":9.8439,"ARG_OF_PERICENTER":84.2454,"MEAN_ANOMALY":275.8899,"EPHEMERIS_TYPE":0,"CLASSIFICATION_TYPE":"U","NORAD_CAT_ID":51627,"ELEMENT_SET_NO":999,"REV_AT_EPOCH":21106,"BSTAR":-1.7198e-05,"MEAN_MOTION_DOT":6e-08,"MEAN_MOTION_DDOT":0.0},{"OBJECT_NAME":"ONEWEB-0425","OBJECT_ID":"2022-012G","EPOCH":"2026-05-28T04:16:46.485120","MEAN_MOTION":13.10371345,"ECCENTRICITY":0.0002138,"INCLINATION":87.8848,"RA_OF_ASC_NODE":40.2505,"ARG_OF_PERICENTER":82.5217,"MEAN_ANOMALY":277.6154,"EPHEMERIS_TYPE":0,"CLASSIFICATION_TYPE":"U","NORAD_CAT_ID":51628,"ELEMENT_SET_NO":999,"REV_AT_EPOCH":20670,"BSTAR":-0.0011783,"MEAN_MOTION_DOT":-3.99e-06,"MEAN_MOTION_DDOT":0.0},{"OBJECT_NAME":"ONEWEB-0428","OBJECT_ID":"2022-012H","EPOCH":"2026-05-28T05:38:02.948640","MEAN_MOTION":13.10372031,"ECCENTRICITY":0.0001807,"INCLINATION":87.885,"RA_OF_ASC_NODE":40.2464,"ARG_OF_PERICENTER":80.0325,"MEAN_ANOMALY":280.1007,"EPHEMERIS_TYPE":0,"CLASSIFICATION_TYPE":"U","NORAD_CAT_ID":51629,"ELEMENT_SET_NO":999,"REV_AT_EPOCH":20667,"BSTAR":0.0015182000000000001,"MEAN_MOTION_DOT":5.43e-06,"MEAN_MOTION_DDOT":0.0},{"OBJECT_NAME":"ONEWEB-0431","OBJECT_ID":"2022-012J","EPOCH":"2026-05-28T04:54:47.893536","MEAN_MOTION":13.10377845,"ECCENTRICITY":0.0001195,"INCLINATION":87.8856,"RA_OF_ASC_NODE":40.2447,"ARG_OF_PERICENTER":80.9976,"MEAN_ANOMALY":279.1286,"EPHEMERIS_TYPE":0,"CLASSIFICATION_TYPE":"U","NORAD_CAT_ID":51630,"ELEMENT_SET_NO":999,"REV_AT_EPOCH":20672,"BSTAR":-0.00046748,"MEAN_MOTION_DOT":-1.51e-06,"MEAN_MOTION_DDOT":0.0},{"OBJECT_NAME":"ONEWEB-0434","OBJECT_ID":"2022-012K","EPOCH":"2026-05-28T06:11:41.460000","MEAN_MOTION":13.10371896,"ECCENTRICITY":0.0002469,"INCLINATION":87.8853,"RA_OF_ASC_NODE":40.2586,"ARG_OF_PERICENTER":83.2522,"MEAN_ANOMALY":276.8886,"EPHEMERIS_TYPE":0,"CLASSIFICATION_TYPE":"U","NORAD_CAT_ID":51631,"ELEMENT_SET_NO":999,"REV_AT_EPOCH":20671,"BSTAR":-0.0016320000000000002,"MEAN_MOTION_DOT":-5.57e-06,"MEAN_MOTION_DDOT":0.0}]